{"type": "FeatureCollection", "features": [{"type": "Feature", "geometry": {"type": "Polygon", "coordinates": [[[-70.6315, -33.418], [-70.571, -33.418], [-70.571, -33.445], [-70.6315, -33.445], [-70.6315, -33.418]]]}, "properties": {"temp_c": 13.2, "hora": 6, "row": 0, "col": 0, "centroid": {"lon": -70.60125, "lat": -33.4315}}}, {"type": "Feature", "geometry": {"type": "Polygon", "coordinates": [[[-70.6315, -33.418], [-70.571, -33.418], [-70.571, -33.445], [-70.6315, -33.445], [-70.6315, -33.418]]]}, "properties": {"temp_c": 12.3, "hora": 7, "row": 0, "col": 0, "centroid": {"lon": -70.60125, "lat": -33.4315}}}, {"type": "Feature", "geometry": {"type": "Polygon", "coordinates": [[[-70.6315, -33.418], [-70.571, -33.418], [-70.571, -33.445], [-70.6315, -33.445], [-70.6315, -33.418]]]}, "properties": {"temp_c": 11.6, "hora": 8, "row": 0, "col": 0, "centroid": {"lon": -70.60125, "lat": -33.4315}}}, {"type": "Feature", "geometry": {"type": "Polygon", "coordinates": [[[-70.6315, -33.418], [-70.571, -33.418], [-70.571, -33.445], [-70.6315, -33.445], [-70.6315, -33.418]]]}, "properties": {"temp_c": 11.2, "hora": 9, "row": 0, "col": 0, "centroid": {"lon": -70.60125, "lat": -33.4315}}}, {"type": "Feature", "geometry": {"type": "Polygon", "coordinates": [[[-70.6315, -33.418], [-70.571, -33.418], [-70.571, -33.445], [-70.6315, -33.445], [-70.6315, -33.418]]]}, "properties": {"temp_c": 10.9, "hora": 10, "row": 0, "col": 0, "centroid": {"lon": -70.60125, "lat": -33.4315}}}, {"type": "Feature", "geometry": {"type": "Polygon", "coordinates": [[[-70.6315, -33.418], [-70.571, -33.418], [-70.571, -33.445], [-70.6315, -33.445], [-70.6315, -33.418]]]}, "properties": {"temp_c": 13.7, "hora": 11, "row": 0, "col": 0, "centroid": {"lon": -70.60125, "lat": -33.4315}}}, {"type": "Feature", "geometry": {"type": "Polygon", "coordinates": [[[-70.6315, -33.418], [-70.571, -33.418], [-70.571, -33.445], [-70.6315, -33.445], [-70.6315, -33.418]]]}, "properties": {"temp_c": 16.7, "hora": 12, "row": 0, "col": 0, "centroid": {"lon": -70.60125, "lat": -33.4315}}}, {"type": "Feature", "geometry": {"type": "Polygon", "coordinates": [[[-70.6315, -33.418], [-70.571, -33.418], [-70.571, -33.445], [-70.6315, -33.445], [-70.6315, -33.418]]]}, "properties": {"temp_c": 19.9, "hora": 13, "row": 0, "col": 0, "centroid": {"lon": -70.60125, "lat": -33.4315}}}, {"type": "Feature", "geometry": {"type": "Polygon", "coordinates": [[[-70.6315, -33.418], [-70.571, -33.418], [-70.571, -33.445], [-70.6315, -33.445], [-70.6315, -33.418]]]}, "properties": {"temp_c": 22.3, "hora": 14, "row": 0, "col": 0, "centroid": {"lon": -70.60125, "lat": -33.4315}}}, {"type": "Feature", "geometry": {"type": "Polygon", "coordinates": [[[-70.6315, -33.418], [-70.571, -33.418], [-70.571, -33.445], [-70.6315, -33.445], [-70.6315, -33.418]]]}, "properties": {"temp_c": 24.2, "hora": 15, "row": 0, "col": 0, "centroid": {"lon": -70.60125, "lat": -33.4315}}}, {"type": "Feature", "geometry": {"type": "Polygon", "coordinates": [[[-70.6315, -33.418], [-70.571, -33.418], [-70.571, -33.445], [-70.6315, -33.445], [-70.6315, -33.418]]]}, "properties": {"temp_c": 25.9, "hora": 16, "row": 0, "col": 0, "centroid": {"lon": -70.60125, "lat": -33.4315}}}, {"type": "Feature", "geometry": {"type": "Polygon", "coordinates": [[[-70.6315, -33.418], [-70.571, -33.418], [-70.571, -33.445], [-70.6315, -33.445], [-70.6315, -33.418]]]}, "properties": {"temp_c": 27.1, "hora": 17, "row": 0, "col": 0, "centroid": {"lon": -70.60125, "lat": -33.4315}}}, {"type": "Feature", "geometry": {"type": "Polygon", "coordinates": [[[-70.6315, -33.418], [-70.571, -33.418], [-70.571, -33.445], [-70.6315, -33.445], [-70.6315, -33.418]]]}, "properties": {"temp_c": 27.0, "hora": 18, "row": 0, "col": 0, "centroid": {"lon": -70.60125, "lat": -33.4315}}}, {"type": "Feature", "geometry": {"type": "Polygon", "coordinates": [[[-70.6315, -33.418], [-70.571, -33.418], [-70.571, -33.445], [-70.6315, -33.445], [-70.6315, -33.418]]]}, "properties": {"temp_c": 26.5, "hora": 19, "row": 0, "col": 0, "centroid": {"lon": -70.60125, "lat": -33.4315}}}, {"type": "Feature", "geometry": {"type": "Polygon", "coordinates": [[[-70.6315, -33.418], [-70.571, -33.418], [-70.571, -33.445], [-70.6315, -33.445], [-70.6315, -33.418]]]}, "properties": {"temp_c": 25.1, "hora": 20, "row": 0, "col": 0, "centroid": {"lon": -70.60125, "lat": -33.4315}}}], "crs": {"type": "name", "properties": {"name": "EPSG:4326"}}, "properties": {"source": "open-meteo", "generated_time": "2025-11-14T23:45:46.890779"}}