{"type": "FeatureCollection", "features": [{"type": "Feature", "geometry": {"type": "Polygon", "coordinates": [[[-70.6315, -33.418], [-70.571, -33.418], [-70.571, -33.445], [-70.6315, -33.445], [-70.6315, -33.418]]]}, "properties": {"uvi": 5.14, "hora": 20, "row": 0, "col": 0, "centroid": {"lon": -70.60125, "lat": -33.4315}, "timestamp": 1762977600}}, {"type": "Feature", "geometry": {"type": "Polygon", "coordinates": [[[-70.6315, -33.418], [-70.571, -33.418], [-70.571, -33.445], [-70.6315, -33.445], [-70.6315, -33.418]]]}, "properties": {"uvi": 0, "hora": 6, "row": 0, "col": 0, "centroid": {"lon": -70.60125, "lat": -33.4315}, "timestamp": 1763013600}}, {"type": "Feature", "geometry": {"type": "Polygon", "coordinates": [[[-70.6315, -33.418], [-70.571, -33.418], [-70.571, -33.445], [-70.6315, -33.445], [-70.6315, -33.418]]]}, "properties": {"uvi": 0, "hora": 7, "row": 0, "col": 0, "centroid": {"lon": -70.60125, "lat": -33.4315}, "timestamp": 1763017200}}, {"type": "Feature", "geometry": {"type": "Polygon", "coordinates": [[[-70.6315, -33.418], [-70.571, -33.418], [-70.571, -33.445], [-70.6315, -33.445], [-70.6315, -33.418]]]}, "properties": {"uvi": 0, "hora": 8, "row": 0, "col": 0, "centroid": {"lon": -70.60125, "lat": -33.4315}, "timestamp": 1763020800}}, {"type": "Feature", "geometry": {"type": "Polygon", "coordinates": [[[-70.6315, -33.418], [-70.571, -33.418], [-70.571, -33.445], [-70.6315, -33.445], [-70.6315, -33.418]]]}, "properties": {"uvi": 0, "hora": 9, "row": 0, "col": 0, "centroid": {"lon": -70.60125, "lat": -33.4315}, "timestamp": 1763024400}}, {"type": "Feature", "geometry": {"type": "Polygon", "coordinates": [[[-70.6315, -33.418], [-70.571, -33.418], [-70.571, -33.445], [-70.6315, -33.445], [-70.6315, -33.418]]]}, "properties": {"uvi": 0, "hora": 10, "row": 0, "col": 0, "centroid": {"lon": -70.60125, "lat": -33.4315}, "timestamp": 1763028000}}, {"type": "Feature", "geometry": {"type": "Polygon", "coordinates": [[[-70.6315, -33.418], [-70.571, -33.418], [-70.571, -33.445], [-70.6315, -33.445], [-70.6315, -33.418]]]}, "properties": {"uvi": 0.45, "hora": 11, "row": 0, "col": 0, "centroid": {"lon": -70.60125, "lat": -33.4315}, "timestamp": 1763031600}}, {"type": "Feature", "geometry": {"type": "Polygon", "coordinates": [[[-70.6315, -33.418], [-70.571, -33.418], [-70.571, -33.445], [-70.6315, -33.445], [-70.6315, -33.418]]]}, "properties": {"uvi": 1.56, "hora": 12, "row": 0, "col": 0, "centroid": {"lon": -70.60125, "lat": -33.4315}, "timestamp": 1763035200}}, {"type": "Feature", "geometry": {"type": "Polygon", "coordinates": [[[-70.6315, -33.418], [-70.571, -33.418], [-70.571, -33.445], [-70.6315, -33.445], [-70.6315, -33.418]]]}, "properties": {"uvi": 3.46, "hora": 13, "row": 0, "col": 0, "centroid": {"lon": -70.60125, "lat": -33.4315}, "timestamp": 1763038800}}, {"type": "Feature", "geometry": {"type": "Polygon", "coordinates": [[[-70.6315, -33.418], [-70.571, -33.418], [-70.571, -33.445], [-70.6315, -33.445], [-70.6315, -33.418]]]}, "properties": {"uvi": 5.97, "hora": 14, "row": 0, "col": 0, "centroid": {"lon": -70.60125, "lat": -33.4315}, "timestamp": 1763042400}}, {"type": "Feature", "geometry": {"type": "Polygon", "coordinates": [[[-70.6315, -33.418], [-70.571, -33.418], [-70.571, -33.445], [-70.6315, -33.445], [-70.6315, -33.418]]]}, "properties": {"uvi": 8.56, "hora": 15, "row": 0, "col": 0, "centroid": {"lon": -70.60125, "lat": -33.4315}, "timestamp": 1763046000}}, {"type": "Feature", "geometry": {"type": "Polygon", "coordinates": [[[-70.6315, -33.418], [-70.571, -33.418], [-70.571, -33.445], [-70.6315, -33.445], [-70.6315, -33.418]]]}, "properties": {"uvi": 10.34, "hora": 16, "row": 0, "col": 0, "centroid": {"lon": -70.60125, "lat": -33.4315}, "timestamp": 1763049600}}, {"type": "Feature", "geometry": {"type": "Polygon", "coordinates": [[[-70.6315, -33.418], [-70.571, -33.418], [-70.571, -33.445], [-70.6315, -33.445], [-70.6315, -33.418]]]}, "properties": {"uvi": 10.57, "hora": 17, "row": 0, "col": 0, "centroid": {"lon": -70.60125, "lat": -33.4315}, "timestamp": 1763053200}}, {"type": "Feature", "geometry": {"type": "Polygon", "coordinates": [[[-70.6315, -33.418], [-70.571, -33.418], [-70.571, -33.445], [-70.6315, -33.445], [-70.6315, -33.418]]]}, "properties": {"uvi": 9.96, "hora": 18, "row": 0, "col": 0, "centroid": {"lon": -70.60125, "lat": -33.4315}, "timestamp": 1763056800}}, {"type": "Feature", "geometry": {"type": "Polygon", "coordinates": [[[-70.6315, -33.418], [-70.571, -33.418], [-70.571, -33.445], [-70.6315, -33.445], [-70.6315, -33.418]]]}, "properties": {"uvi": 6.85, "hora": 19, "row": 0, "col": 0, "centroid": {"lon": -70.60125, "lat": -33.4315}, "timestamp": 1763060400}}], "crs": {"type": "name", "properties": {"name": "EPSG:4326"}}, "properties": {"source": "openweather", "generated_time_unix": 1762978416}}